*******************************************************************************
 Revised: June 21, 2016                 Mars                            499 / 4
 
 PHYSICAL DATA (updated 2019-Oct-29):
  Vol. mean radius (km) = 3389.92+-0.04   Density (g/cm^3)      =  3.933(5+-4)
  Mass x10^23 (kg)      =    6.4171       Flattening, f         =  1/169.779
  Volume (x10^10 km^3)  =   16.318        Equatorial radius (km)=  3396.19
  Sidereal rot. period  =   24.622962 hr  Sid. rot. rate, rad/s =  0.0000708822 
  Mean solar day (sol)  =   88775.24415 s Polar gravity m/s^2   =  3.758
  Core radius (km)      = ~1700           Equ. gravity  m/s^2   =  3.71
  Geometric Albedo      =    0.150                                              

  GM (km^3/s^2)         = 42828.375214    Mass ratio (Sun/Mars) = 3098703.59
  GM 1-sigma (km^3/s^2) = +- 0.00028      Mass of atmosphere, kg= ~ 2.5 x 10^16
  Mean temperature (K)  =  210            Atmos. pressure (bar) =    0.0056 
  Obliquity to orbit    =   25.19 deg     Max. angular diam.    =  17.9"
  Mean sidereal orb per =    1.88081578 y Visual mag. V(1,0)    =  -1.52
  Mean sidereal orb per =  686.98 d       Orbital speed,  km/s  =  24.13
  Hill's sphere rad. Rp =  319.8          Escape speed, km/s    =   5.027
                                 Perihelion  Aphelion    Mean
  Solar Constant (W/m^2)         717         493         589
  Maximum Planetary IR (W/m^2)   470         315         390
  Minimum Planetary IR (W/m^2)    30          30          30
*******************************************************************************
 
 
*******************************************************************************
Ephemeris / WWW_USER Tue Jun  8 14:48:24 2021 Pasadena, USA      / Horizons    
*******************************************************************************
Target body name: Mars (499)                      {source: mar097}
Target-point    : (user defined coordinates below)
Center body name: Earth (399)                     {source: mar097}
Center-site name: (user defined site below)
*******************************************************************************
Start time      : A.D. 1959-Jan-01 00:00:00.0000 UT      
Stop  time      : A.D. 1959-Jan-02 01:00:00.0000 UT      
Step-size       : 10 minutes
*******************************************************************************
Target geodetic : 350.540000,40.7500000,0.0000000 {W-lon(deg),Lat(deg),Alt(km)}
Target cylindric: 350.540000,2579.29254,2196.3748 {W-lon(deg),Dxy(km),Dz(km)}
Target pole/equ : IAU_MARS                        {West-longitude positive}
Target radii    : 3396.2 x 3396.2 x 3376.2 km     {Equator, meridian, pole}    
Center geodetic : 116.540000,33.8000000,2.117E-12 {E-lon(deg),Lat(deg),Alt(km)}
Center cylindric: 116.540000,5305.63141,3528.0335 {E-lon(deg),Dxy(km),Dz(km)}
Center pole/equ : High-precision EOP model        {East-longitude positive}
Center radii    : 6378.1 x 6378.1 x 6356.8 km     {Equator, meridian, pole}    
Target primary  : Sun
Vis. interferer : MOON (R_eq= 1737.400) km        {source: mar097}
Rel. light bend : Sun, EARTH                      {source: mar097}
Rel. lght bnd GM: 1.3271E+11, 3.9860E+05 km^3/s^2                              
Atmos refraction: NO (AIRLESS)
RA format       : DEG
Time format     : BOTH
RTS-only print  : NO       
EOP file        : eop.210607.p210829                                           
EOP coverage    : DATA-BASED 1962-JAN-20 TO 2021-JUN-07. PREDICTS-> 2021-AUG-28
Units conversion: 1 au= 149597870.700 km, c= 299792.458 km/s, 1 day= 86400.0 s 
Table cut-offs 1: Elevation (-90.0deg=NO ),Airmass (>38.000=NO), Daylight (NO )
Table cut-offs 2: Solar elongation (  0.0,180.0=NO ),Local Hour Angle( 0.0=NO )
Table cut-offs 3: RA/DEC angular rate (     0.0=NO )                           
Table format    : Comma Separated Values (spreadsheet)
***********************************************************************************************************************************************************************************************************************************************************************************
 Date__(UT)__HR:MN, Date_________JDUT, , , , , R.A._(ICRF), DEC_(ICRF), R.A._(a-app), DEC_(a-app),  Azi_(a-app), Elev_(a-app),  Ang-diam,  ObsSub-LON, ObsSub-LAT,  SunSub-LON, SunSub-LAT,    NP.ang,  NP.dist,             delta,     deldot,  RA_(ICRF-a-app), DEC_(ICRF-a-app),
***********************************************************************************************************************************************************************************************************************************************************************************
$$SOE
 1959-Jan-01 15:50, 2436570.159722222, ,m,N,L,    45.08098,   19.02502,     44.50639,    18.86283,   264.559525,    43.190800,  12.73387,  354.161142, -16.823692,  326.420480,  -2.764552,  320.8762,   -6.059,  0.73545128861700, 14.2985543,         45.08453,         19.02617,
 1959-Jan-01 16:00, 2436570.166666667, ,m,N,L,    45.08188,   19.02532,     44.50728,    18.86313,   266.107460,    41.115490,  12.73288,  356.596831, -16.823387,  328.853906,  -2.763037,  320.8763,   -6.058,  0.73550867563866, 14.3169696,         45.08542,         19.02646,
 1959-Jan-01 16:10, 2436570.173611111, ,m,N,L,    45.08278,   19.02562,     44.50818,    18.86343,   267.598200,    39.036424,  12.73189,  359.032517, -16.823079,  331.287332,  -2.761522,  320.8763,   -6.058,  0.73556613534802, 14.3347952,         45.08632,         19.02676,
 1959-Jan-01 16:20, 2436570.180555556, ,m,N,L,    45.08370,   19.02591,     44.50909,    18.86373,   269.040442,    36.955117,  12.73089,    1.468200, -16.822766,  333.720758,  -2.760007,  320.8764,   -6.057,  0.73562366531684, 14.3519999,         45.08723,         19.02706,
 1959-Jan-01 16:30, 2436570.187500000, ,m,N,L,    45.08461,   19.02621,     44.51000,    18.86402,   270.441772,    34.872940,  12.72990,    3.903878, -16.822450,  336.154184,  -2.758492,  320.8764,   -6.057,  0.73568126299332, 14.3685533,         45.08815,         19.02735,
 1959-Jan-01 16:40, 2436570.194444444, ,m,N,L,    45.08554,   19.02650,     44.51092,    18.86432,   271.808861,    32.791149,  12.72891,    6.339554, -16.822131,  338.587610,  -2.756977,  320.8764,   -6.056,  0.73573892570701, 14.3844266,         45.08907,         19.02764,
 1959-Jan-01 16:50, 2436570.201388889, ,m,N,L,    45.08647,   19.02679,     44.51184,    18.86461,   273.147625,    30.710908,  12.72791,    8.775225, -16.821807,  341.021036,  -2.755462,  320.8765,   -6.056,  0.73579665067378, 14.3995920,         45.08999,         19.02794,
 1959-Jan-01 17:00, 2436570.208333333, ,m,N,L,    45.08740,   19.02708,     44.51277,    18.86491,   274.463355,    28.633316,  12.72691,   11.210892, -16.821479,  343.454462,  -2.753947,  320.8765,   -6.055,  0.73585443500121, 14.4140231,         45.09092,         19.02823,
 1959-Jan-01 17:10, 2436570.215277778, ,m,N,L,    45.08835,   19.02737,     44.51371,    18.86520,   275.760828,    26.559421,  12.72592,   13.646555, -16.821148,  345.887888,  -2.752432,  320.8765,   -6.055,  0.73591227569404, 14.4276952,         45.09186,         19.02852,
 1959-Jan-01 17:20, 2436570.222222222, ,m,N,L,    45.08930,   19.02766,     44.51466,    18.86550,   277.044393,    24.490235,  12.72492,   16.082215, -16.820813,  348.321314,  -2.750917,  320.8766,   -6.054,  0.73597016965983, 14.4405846,         45.09281,         19.02881,
 1959-Jan-01 17:30, 2436570.229166667, ,m,N,L,    45.09025,   19.02795,     44.51561,    18.86579,   278.318050,    22.426753,  12.72393,   18.517869, -16.820474,  350.754740,  -2.749402,  320.8766,   -6.054,  0.73602811371493, 14.4526693,         45.09376,         19.02910,
 1959-Jan-01 17:40, 2436570.236111111, ,m,N,L,    45.09122,   19.02824,     44.51657,    18.86608,   279.585507,    20.369954,  12.72293,   20.953520, -16.820131,  353.188166,  -2.747888,  320.8767,   -6.053,  0.73608610459035, 14.4639289,         45.09473,         19.02939,
 1959-Jan-01 17:50, 2436570.243055556, ,m,N,L,    45.09219,   19.02854,     44.51753,    18.86638,   280.850239,    18.320824,  12.72193,   23.389166, -16.819784,  355.621591,  -2.746373,  320.8767,   -6.053,  0.73614413893812, 14.4743444,         45.09569,         19.02968,
 1959-Jan-01 18:00, 2436570.250000000, ,m,N,L,    45.09317,   19.02883,     44.51851,    18.86667,   282.115531,    16.280353,  12.72094,   25.824807, -16.819434,  358.055017,  -2.744858,  320.8767,   -6.053,  0.73620221333757, 14.4838985,         45.09667,         19.02997,
 1959-Jan-01 18:10, 2436570.256944444, ,m,N,L,    45.09416,   19.02912,     44.51949,    18.86696,   283.384514,    14.249556,  12.71994,   28.260444, -16.819080,    0.488443,  -2.743343,  320.8768,   -6.052,  0.73626032430169, 14.4925755,         45.09765,         19.03026,
 1959-Jan-01 18:20, 2436570.263888889, ,m,N,L,    45.09515,   19.02941,     44.52048,    18.86726,   284.660203,    12.229469,  12.71894,   30.696076, -16.818722,    2.921869,  -2.741828,  320.8768,   -6.052,  0.73631846828388, 14.5003614,         45.09864,         19.03056,
 1959-Jan-01 18:30, 2436570.270833333, ,m,N,L,    45.09615,   19.02970,     44.52148,    18.86755,   285.945524,    10.221169,  12.71795,   33.131703, -16.818360,    5.355295,  -2.740313,  320.8769,   -6.051,  0.73637664168461, 14.5072438,         45.09964,         19.03085,
 1959-Jan-01 18:40, 2436570.277777778, ,m,N,L,    45.09717,   19.02999,     44.52248,    18.86785,   287.243338,     8.225773,  12.71695,   35.567326, -16.817995,    7.788721,  -2.738798,  320.8769,   -6.051,  0.73643484085814, 14.5132120,         45.10065,         19.03114,
 1959-Jan-01 18:50, 2436570.284722222, ,m,N,L,    45.09818,   19.03029,     44.52349,    18.86814,   288.556468,     6.244450,  12.71595,   38.002944, -16.817626,   10.222147,  -2.737283,  320.8770,   -6.050,  0.73649306211953, 14.5182572,         45.10166,         19.03143,
